     2.100          NAVIGATION                              RINEX VERSION / TYPE
fic2rin                                 03/23/2012 00:07:01 PGM / RUN BY / DATE
                                                            END OF HEADER
24 12  3 23  0  0  0.0  .156136229634D-05  .352429196937D-11  .000000000000D+00
     .500000000000D+01 -.744687500000D+02  .439875465436D-08 -.883522732325D+00
    -.374205410480D-05  .856748432852D-02  .502727925777D-05  .515373351288D+04
     .432000000000D+06 -.143423676491D-06  .221329704135D+01  .134110450745D-06
     .981928060102D+00  .295656250000D+03 -.183571195734D+01 -.822569977627D-08
    -.342157109360D-09  .100000000000D+01  .168000000000D+04  .000000000000D+00
     .340000000000D+01  .630000000000D+02 -.372529029846D-08  .500000000000D+01
     .424806000000D+06  .400000000000D+01
25 12  3 23  0  0  0.0  .324165448546D-04  .227373675443D-12  .000000000000D+00
     .730000000000D+02  .680937500000D+02  .454983237592D-08  .225342387777D+01
     .351294875145D-05  .140466564335D-02  .686198472977D-05  .515374137115D+04
     .432000000000D+06 -.894069671631D-07 -.208303197204D+01 -.335276126862D-07
     .967645326106D+00  .249562500000D+03  .602022909448D+00 -.809283709915D-08
     .475019786481D-09  .100000000000D+01  .168000000000D+04  .000000000000D+00
     .240000000000D+01  .000000000000D+00  .558793544769D-08  .730000000000D+02
     .424806000000D+06  .400000000000D+01
26 12  3 23  0  0  0.0 -.195059925318D-03 -.557065504836D-10  .000000000000D+00
     .420000000000D+02 -.687500000000D+02  .440304054717D-08 -.124258531167D+01
    -.311993062496D-05  .209345348412D-01  .442191958427D-05  .515365151024D+04
     .432000000000D+06  .262632966042D-06  .220131436421D+01  .463798642159D-06
     .983769480439D+00  .303656250000D+03  .117969892827D+01 -.819498421113D-08
    -.337156901081D-09  .100000000000D+01  .168000000000D+04  .000000000000D+00
     .240000000000D+01  .000000000000D+00 -.605359673500D-08  .420000000000D+02
     .424806000000D+06  .400000000000D+01
27 12  3 23  0  0  0.0  .369601882994D-03  .397903932026D-11  .000000000000D+00
     .410000000000D+02 -.474375000000D+02  .397587989707D-08 -.307269082419D+00
    -.260397791862D-05  .218204774428D-01  .120643526316D-04  .515375863457D+04
     .432000000000D+06 -.322237610817D-06  .312501277102D+01 -.227242708206D-06
     .982291393362D+00  .166250000000D+03 -.110677045197D+01 -.797390357366D-08
     .185722021782D-10  .100000000000D+01  .168000000000D+04  .000000000000D+00
     .240000000000D+01  .000000000000D+00 -.419095158577D-08  .410000000000D+02
     .424806000000D+06  .400000000000D+01
28 12  3 23  0  0  0.0  .125422142446D-03  .409272615798D-11  .000000000000D+00
     .860000000000D+02  .557500000000D+02  .451804533758D-08  .716022799121D+00
     .300444662571D-05  .178726169979D-01  .703521072865D-05  .515370446777D+04
     .432000000000D+06 -.204890966415D-06 -.202477823472D+01  .745058059692D-08
     .977971023230D+00  .258906250000D+03 -.183160515423D+01 -.839142096494D-08
     .330728061866D-09  .100000000000D+01  .168000000000D+04  .000000000000D+00
     .240000000000D+01  .000000000000D+00 -.107102096081D-07  .860000000000D+02
     .424806000000D+06  .400000000000D+01
29 12  3 23  0  0  0.0  .296275597066D-03  .363797880709D-11  .000000000000D+00
     .710000000000D+02 -.570625000000D+02  .473841165958D-08  .293692721929D+01
    -.303797423840D-05  .231103238184D-02  .493042171001D-05  .515360987473D+04
     .432000000000D+06  .167638063431D-07 -.981658324341D+00  .745058059692D-08
     .962924350487D+00  .284531250000D+03 -.117796999317D+01 -.823820029697D-08
    -.455018953366D-09  .100000000000D+01  .168000000000D+04  .000000000000D+00
     .240000000000D+01  .000000000000D+00 -.931322574615D-08  .710000000000D+02
     .424806000000D+06  .400000000000D+01
30 12  3 23  0  0  0.0 -.956202857196D-04 -.161435309565D-10  .000000000000D+00
     .103000000000D+03  .685625000000D+02  .484413034890D-08  .221186776746D-02
     .381097197533D-05  .109164410969D-01  .744871795177D-05  .515362733650D+04
     .432000000000D+06 -.152736902237D-06 -.217332653820D+01  .279396772385D-07
     .958968210384D+00  .236656250000D+03  .155532610855D+01 -.842606526515D-08
     .436803908922D-09  .100000000000D+01  .168000000000D+04  .000000000000D+00
     .240000000000D+02  .000000000000D+00 -.419095158577D-08  .103000000000D+03
     .424806000000D+06  .400000000000D+01
32 12  3 23  0  0  0.0 -.423646066338D-03 -.477484718431D-11  .000000000000D+00
     .170000000000D+02  .888750000000D+02  .484591613757D-08 -.208680872181D+01
     .472739338875D-05  .118303459603D-01  .480189919472D-05  .515371928406D+04
     .432000000000D+06 -.206753611565D-06  .115654519363D+01  .819563865662D-07
     .952050538921D+00  .286468750000D+03 -.601015242697D+00 -.840356432790D-08
     .516092925913D-09  .100000000000D+01  .168000000000D+04  .000000000000D+00
     .240000000000D+01  .000000000000D+00 -.279396772385D-08  .170000000000D+02
     .424806000000D+06  .400000000000D+01
23 12  3 22 23 59 44.0  .221795868129D-03 -.352429196937D-11  .000000000000D+00
     .700000000000D+01 -.710000000000D+02  .486805991709D-08 -.110623666242D+01
    -.381469726562D-05  .763930601534D-02  .394508242607D-05  .515365212631D+04
     .431984000000D+06  .614672899246D-07  .212995553317D+01 -.651925802231D-07
     .960628290321D+00  .299437500000D+03 -.302771119738D+01 -.844035157452D-08
    -.214294640518D-09  .100000000000D+01  .168000000000D+04  .000000000000D+00
     .240000000000D+01  .000000000000D+00 -.200234353542D-07  .700000000000D+01
     .426456000000D+06  .400000000000D+01
